[{"OBJECT_NAME":"STARLINK-32677","OBJECT_ID":"2025-032R","EPOCH":"2026-03-09T01:39:19.596384","MEAN_MOTION":15.2755691,"ECCENTRICITY":0.0001167,"INCLINATION":43.0015,"RA_OF_ASC_NODE":339.6819,"ARG_OF_PERICENTER":291.3833,"MEAN_ANOMALY":68.6894,"EPHEMERIS_TYPE":0,"CLASSIFICATION_TYPE":"U","NORAD_CAT_ID":63020,"ELEMENT_SET_NO":999,"REV_AT_EPOCH":6051,"BSTAR":0.0010516232,"MEAN_MOTION_DOT":0.00028769,"MEAN_MOTION_DDOT":0},{"OBJECT_NAME":"OBJECT BE","OBJECT_ID":"2025-313BE","EPOCH":"2026-03-09T16:43:59.380320","MEAN_MOTION":15.29801687,"ECCENTRICITY":0.00072083,"INCLINATION":97.3989,"RA_OF_ASC_NODE":145.3568,"ARG_OF_PERICENTER":335.3714,"MEAN_ANOMALY":24.7181,"EPHEMERIS_TYPE":0,"CLASSIFICATION_TYPE":"U","NORAD_CAT_ID":67482,"ELEMENT_SET_NO":999,"REV_AT_EPOCH":797,"BSTAR":0.0026504328,"MEAN_MOTION_DOT":0.00077178,"MEAN_MOTION_DDOT":0}]
