STARLINK-32677          
1 63020U 25032R   26068.06897681  .00028769  00000+0  10516-2 0  9996
2 63020  43.0015 339.6819 0001167 291.3833  68.6894 15.27556910 60513
2025-313BE              
1 67482U 25313BE  26068.69721505  .00077178  00000+0  26504-2 0  9996
2 67482  97.3989 145.3568 0007208 335.3714  24.7181 15.29801687  7972
